{
  "norad_id": 66545,
  "name": "SHIJIAN-30A (SJ-30A)",
  "history": [
    {
      "epoch": "2026-03-28T18:53:26.119968Z",
      "apogee_km": 527.6944620317454,
      "perigee_km": 511.6250787635563,
      "latitude_deg": -5.4104334181736587e-05,
      "longitude_deg": 86.45797965589989,
      "height_km": 512.4037994325804,
      "semi_major_axis_km": 6897.79677039765,
      "eccentricity": 0.00116482,
      "inclination_deg": 51.7985,
      "raan_deg": 196.0194,
      "arg_perigee_deg": 355.0676,
      "mean_anomaly_deg": 5.0183,
      "mean_motion_rev_day": 15.154345
    },
    {
      "epoch": "2026-03-30T05:42:34.602336Z",
      "apogee_km": 527.6090737003287,
      "perigee_km": 511.4602448116784,
      "latitude_deg": -1.10436409498548e-05,
      "longitude_deg": -84.05249560130054,
      "height_km": 512.2083393021469,
      "semi_major_axis_km": 6897.671659256003,
      "eccentricity": 0.0011706,
      "inclination_deg": 51.7988,
      "raan_deg": 189.2242,
      "arg_perigee_deg": 359.6916,
      "mean_anomaly_deg": 0.4051,
      "mean_motion_rev_day": 15.15475731
    }
  ]
}